{
  "norad_id": 52138,
  "name": "STARLINK-3723",
  "history": [
    {
      "epoch": "2026-03-28T22:28:13.911168Z",
      "apogee_km": 540.8197675911406,
      "perigee_km": 538.6966655491751,
      "latitude_deg": 3.625882103712012e-06,
      "longitude_deg": 179.31177164345857,
      "height_km": 540.6813572722832,
      "semi_major_axis_km": 6917.895216570158,
      "eccentricity": 0.00015345,
      "inclination_deg": 53.2202,
      "raan_deg": 342.7193,
      "arg_perigee_deg": 91.4781,
      "mean_anomaly_deg": 268.6387,
      "mean_motion_rev_day": 15.08835149
    },
    {
      "epoch": "2026-03-29T03:14:23.131680Z",
      "apogee_km": 540.7577915848578,
      "perigee_km": 538.739152604101,
      "latitude_deg": 6.405705650446184e-05,
      "longitude_deg": 106.68533258531941,
      "height_km": 540.6047691065402,
      "semi_major_axis_km": 6917.885472094479,
      "eccentricity": 0.0001459,
      "inclination_deg": 53.2192,
      "raan_deg": 341.8271,
      "arg_perigee_deg": 87.7597,
      "mean_anomaly_deg": 272.3563,
      "mean_motion_rev_day": 15.08838337
    },
    {
      "epoch": "2026-03-30T03:05:10.383360Z",
      "apogee_km": 540.6987469619971,
      "perigee_km": 538.8087792055221,
      "latitude_deg": -4.033513635882671e-05,
      "longitude_deg": 103.5487342965735,
      "height_km": 540.6961995253876,
      "semi_major_axis_km": 6917.890763083759,
      "eccentricity": 0.0001366,
      "inclination_deg": 53.2187,
      "raan_deg": 337.3668,
      "arg_perigee_deg": 92.8262,
      "mean_anomaly_deg": 267.2886,
      "mean_motion_rev_day": 15.08836606
    },
    {
      "epoch": "2026-03-30T09:26:42.776160Z",
      "apogee_km": 540.8068272988085,
      "perigee_km": 538.6718323059049,
      "latitude_deg": 3.578216037349769e-06,
      "longitude_deg": 6.713042483475209,
      "height_km": 540.6139312627249,
      "semi_major_axis_km": 6917.876329802356,
      "eccentricity": 0.00015431,
      "inclination_deg": 53.2203,
      "raan_deg": 336.1772,
      "arg_perigee_deg": 88.8643,
      "mean_anomaly_deg": 271.2526,
      "mean_motion_rev_day": 15.08841328
    },
    {
      "epoch": "2026-03-30T20:34:25.251744Z",
      "apogee_km": 540.8237416572774,
      "perigee_km": 538.6980099979937,
      "latitude_deg": -1.2285953240226134e-05,
      "longitude_deg": -162.75218021050893,
      "height_km": 540.688872639264,
      "semi_major_axis_km": 6917.897875827635,
      "eccentricity": 0.00015364,
      "inclination_deg": 53.2203,
      "raan_deg": 334.096,
      "arg_perigee_deg": 91.7376,
      "mean_anomaly_deg": 268.3792,
      "mean_motion_rev_day": 15.08834279
    },
    {
      "epoch": "2026-03-31T09:17:29.888736Z",
      "apogee_km": 540.7406671073595,
      "perigee_km": 538.7307483708528,
      "latitude_deg": -3.07642318651093e-05,
      "longitude_deg": 3.576178118178784,
      "height_km": 540.5796289173543,
      "semi_major_axis_km": 6917.872707739106,
      "eccentricity": 0.00014527,
      "inclination_deg": 53.2187,
      "raan_deg": 331.716,
      "arg_perigee_deg": 87.0452,
      "mean_anomaly_deg": 273.0706,
      "mean_motion_rev_day": 15.08842513
    },
    {
      "epoch": "2026-04-01T01:11:21.761952Z",
      "apogee_km": 540.8828323804964,
      "perigee_km": 538.6116909773873,
      "latitude_deg": 1.3541278266048729e-05,
      "longitude_deg": 121.48267649249553,
      "height_km": 540.7216956520741,
      "semi_major_axis_km": 6917.884261678942,
      "eccentricity": 0.00016415,
      "inclination_deg": 53.2199,
      "raan_deg": 328.7415,
      "arg_perigee_deg": 93.9819,
      "mean_anomaly_deg": 266.1361,
      "mean_motion_rev_day": 15.08838733
    },
    {
      "epoch": "2026-04-02T08:59:03.729408Z",
      "apogee_km": 540.7402594277519,
      "perigee_km": 538.6981082822767,
      "latitude_deg": -2.6684988547709217e-05,
      "longitude_deg": -2.6942902611031605,
      "height_km": 540.42618187659,
      "semi_major_axis_km": 6917.856183855014,
      "eccentricity": 0.0001476,
      "inclination_deg": 53.2193,
      "raan_deg": 322.7952,
      "arg_perigee_deg": 79.3448,
      "mean_anomaly_deg": 280.771,
      "mean_motion_rev_day": 15.08847919
    },
    {
      "epoch": "2026-04-02T21:42:09.112896Z",
      "apogee_km": 540.7057588462421,
      "perigee_km": 538.7787144060885,
      "latitude_deg": 4.908866512078412e-05,
      "longitude_deg": 163.63311888701347,
      "height_km": 540.5738338429873,
      "semi_major_axis_km": 6917.879236626165,
      "eccentricity": 0.00013928,
      "inclination_deg": 53.2196,
      "raan_deg": 320.4173,
      "arg_perigee_deg": 86.1738,
      "mean_anomaly_deg": 273.9414,
      "mean_motion_rev_day": 15.08840377
    },
    {
      "epoch": "2026-04-03T18:22:10.580736Z",
      "apogee_km": 540.9388837341394,
      "perigee_km": 538.7763186218108,
      "latitude_deg": -1.9710369974117856e-05,
      "longitude_deg": -151.0910148392786,
      "height_km": 540.7599340034328,
      "semi_major_axis_km": 6917.994601177975,
      "eccentricity": 0.0001563,
      "inclination_deg": 53.2193,
      "raan_deg": 316.5481,
      "arg_perigee_deg": 90.3561,
      "mean_anomaly_deg": 269.761,
      "mean_motion_rev_day": 15.08802635
    },
    {
      "epoch": "2026-04-04T00:43:43.402944Z",
      "apogee_km": 540.7925238601711,
      "perigee_km": 538.7430253916409,
      "latitude_deg": 3.4310879499721093e-05,
      "longitude_deg": 112.07280641025034,
      "height_km": 540.7288561569837,
      "semi_major_axis_km": 6917.904774625906,
      "eccentricity": 0.00014813,
      "inclination_deg": 53.2197,
      "raan_deg": 315.3598,
      "arg_perigee_deg": 93.6538,
      "mean_anomaly_deg": 266.4624,
      "mean_motion_rev_day": 15.08832022
    },
    {
      "epoch": "2026-04-05T13:17:35.098080Z",
      "apogee_km": 540.680032101809,
      "perigee_km": 538.8337845755514,
      "latitude_deg": 6.601770684174335e-06,
      "longitude_deg": -84.73115740070978,
      "height_km": 540.8408630375411,
      "semi_major_axis_km": 6917.89390833868,
      "eccentricity": 0.00013344,
      "inclination_deg": 53.2198,
      "raan_deg": 308.5229,
      "arg_perigee_deg": 101.7461,
      "mean_anomaly_deg": 258.3681,
      "mean_motion_rev_day": 15.08835577
    },
    {
      "epoch": "2026-04-05T19:39:07.824384Z",
      "apogee_km": 540.6983012057563,
      "perigee_km": 538.8375231424807,
      "latitude_deg": -6.606718170305926e-06,
      "longitude_deg": 178.43161413190538,
      "height_km": 540.8532730533121,
      "semi_major_axis_km": 6917.904912174118,
      "eccentricity": 0.00013449,
      "inclination_deg": 53.2189,
      "raan_deg": 307.3332,
      "arg_perigee_deg": 101.7484,
      "mean_anomaly_deg": 258.3659,
      "mean_motion_rev_day": 15.08831977
    },
    {
      "epoch": "2026-04-06T22:40:41.270304Z",
      "apogee_km": 540.6765084813478,
      "perigee_km": 538.8266650732439,
      "latitude_deg": -2.5185761460412784e-05,
      "longitude_deg": 126.8773230266861,
      "height_km": 540.7996606276133,
      "semi_major_axis_km": 6917.888586777296,
      "eccentricity": 0.0001337,
      "inclination_deg": 53.219,
      "raan_deg": 302.2782,
      "arg_perigee_deg": 99.4676,
      "mean_anomaly_deg": 260.6467,
      "mean_motion_rev_day": 15.08837318
    },
    {
      "epoch": "2026-04-07T17:45:18.910080Z",
      "apogee_km": 540.667981699763,
      "perigee_km": 538.8333578897336,
      "latitude_deg": 1.1025580733409427e-05,
      "longitude_deg": -163.6315543244564,
      "height_km": 540.6985824951694,
      "semi_major_axis_km": 6917.887669794748,
      "eccentricity": 0.0001326,
      "inclination_deg": 53.2186,
      "raan_deg": 298.7096,
      "arg_perigee_deg": 93.2517,
      "mean_anomaly_deg": 266.8627,
      "mean_motion_rev_day": 15.08837618
    },
    {
      "epoch": "2026-04-08T12:49:56.406432Z",
      "apogee_km": 540.6309025096898,
      "perigee_km": 538.8637981312431,
      "latitude_deg": -3.018351582084661e-05,
      "longitude_deg": -94.1402901086892,
      "height_km": 540.68128003503,
      "semi_major_axis_km": 6917.884350320466,
      "eccentricity": 0.00012772,
      "inclination_deg": 53.2184,
      "raan_deg": 295.1406,
      "arg_perigee_deg": 92.4648,
      "mean_anomaly_deg": 267.649,
      "mean_motion_rev_day": 15.08838704
    },
    {
      "epoch": "2026-04-09T19:02:15.872928Z",
      "apogee_km": 540.5956063973226,
      "perigee_km": 538.8882738748962,
      "latitude_deg": 3.8176377389756925e-05,
      "longitude_deg": 165.88765457191985,
      "height_km": 540.6276361606857,
      "semi_major_axis_km": 6917.878940136109,
      "eccentricity": 0.0001234,
      "inclination_deg": 53.2175,
      "raan_deg": 289.4901,
      "arg_perigee_deg": 89.3161,
      "mean_anomaly_deg": 270.7973,
      "mean_motion_rev_day": 15.08840474
    },
    {
      "epoch": "2026-04-10T06:09:57.651264Z",
      "apogee_km": 540.5901184388376,
      "perigee_km": 538.885692419638,
      "latitude_deg": 5.819203934690149e-05,
      "longitude_deg": -3.575130041846239,
      "height_km": 540.6207963160127,
      "semi_major_axis_km": 6917.8749054292375,
      "eccentricity": 0.00012319,
      "inclination_deg": 53.2174,
      "raan_deg": 287.4084,
      "arg_perigee_deg": 89.127,
      "mean_anomaly_deg": 270.9864,
      "mean_motion_rev_day": 15.08841794
    },
    {
      "epoch": "2026-04-11T18:43:50.327040Z",
      "apogee_km": 540.7166491405487,
      "perigee_km": 538.793475147273,
      "latitude_deg": 5.6537526672154264e-05,
      "longitude_deg": 159.61432725690065,
      "height_km": 540.6885733995165,
      "semi_major_axis_km": 6917.892062143911,
      "eccentricity": 0.000139,
      "inclination_deg": 53.2174,
      "raan_deg": 280.569,
      "arg_perigee_deg": 92.2562,
      "mean_anomaly_deg": 267.859,
      "mean_motion_rev_day": 15.08836181
    }
  ]
}